0 SL-8 R/B
1 23527U 95012B   13281.16658046 -.00000034  00000-0 -53084-4 0  7910
2 23527 082.9406 307.5223 0021515 108.5763 283.2143 13.73445864929767
0 SL-8 R/B
1 23527U 95012B   13283.52246227 -.00000049  00000-0 -68673-4 0  7923
2 23527 082.9405 305.7810 0021500 102.4351 051.2331 13.73445359930086
0 SL-8 R/B
1 23527U 95012B   13285.63190723 -.00000040  00000-0 -59764-4 0  7939
2 23527 082.9404 304.2219 0021464 096.8914 040.8544 13.73445582930372
0 SL-8 R/B
1 23527U 95012B   13287.67179892 -.00000062  00000-0 -82869-4 0  7946
2 23527 082.9403 302.7141 0021424 091.5321 046.5848 13.73445375930659
0 SL-8 R/B
1 23527U 95012B   13290.12757265 -.00000047  00000-0 -66907-4 0  7955
2 23527 082.9402 300.8989 0021364 085.0758 308.5433 13.73445030930998
0 SL-8 R/B
1 23527U 95012B   13292.17484914 -.00000034  00000-0 -52922-4 0  7969
2 23527 082.9403 299.3855 0021303 079.7064 350.7756 13.73444681931276
0 SL-8 R/B
1 23527U 95012B   13294.59290356 -.00000033  00000-0 -52228-4 0  7971
2 23527 082.9404 297.5981 0021223 073.3254 066.2593 13.73444299931609
